AEROCUBE 7B             
1 43042U 17071F   18361.76493742  .00002379  00000-0  68496-4 0  9998
2 43042  51.6372 177.6273 0004305 242.8464 117.2082 15.40053635 59427
AEROCUBE 7C             
1 43043U 17071G   18361.57029774  .00002392  00000-0  68810-4 0  9993
2 43043  51.6375 178.5874 0004392 243.7560 116.2973 15.40049412 59360
CHEFSAT                 
1 43044U 17071H   18361.80651524  .00004221  00000-0  10752-3 0  9998
2 43044  51.6379 174.9783 0004311 241.6701 118.3849 15.41812605 59435
ASGARDIA 1              
1 43049U 17071N   18361.53582171  .00001667  00000-0  50752-4 0  9990
2 43049  51.6380 178.3722 0001813 261.0527  99.0252 15.40168661 59369
ISARA                   
1 43050U 17071P   18361.57916495  .00003759  00000-0  97952-4 0  9993
2 43050  51.6373 176.4382 0001675 251.4449 108.6354 15.41442594 59390
FAUNA                   
1 43052U 17071R   18361.50345934  .00002357  00000-0  67247-4 0  9999
2 43052  51.6379 178.1705 0001733 254.9003 105.1790 15.40370237 59350
CORVUS BC3              
1 43118U 18004H   18361.64401165  .00000592  00000-0  28550-4 0  9996
2 43118  97.5103  64.3829 0011767 132.7605 227.4623 15.22560810 53141
MICROMAS-2A             
1 43131U 18004W   18361.38003987  .00001412  00000-0  62200-4 0  9994
2 43131  97.5119  64.4703 0010787 135.9028 224.3070 15.23478433 53120
CICERO 7                
1 43143U 18004AJ  18361.42570921  .00001116  00000-0  49442-4 0  9993
2 43143  97.5112  64.7030 0008674 142.5334 217.6509 15.23738104 53146
GOMX4-B                 
1 43196U 18015E   18361.54455925  .00000367  00000-0  18161-4 0  9993
2 43196  97.3688 126.8335 0018126 193.1850 166.8926 15.23767766 49976
GOMX4-A                 
1 43197U 18015F   18361.82751076  .00000362  00000-0  17874-4 0  9996
2 43197  97.3705 127.1210 0018841 191.7991 321.6722 15.23861020 50028
1KUNS-PF                
1 43466U 98067NP  18361.71740375  .00013154  00000-0  16382-3 0  9993
2 43466  51.6388 128.3506 0000664 153.5428 206.5599 15.60281357 35861
UBAKUSAT                
1 43467U 98067NQ  18361.60430083  .00008867  00000-0  11829-3 0  9990
2 43467  51.6383 129.8433 0002857 133.1415 226.9817 15.58943671 35846
BATSU-CS1 (IRAZU)       
1 43468U 98067NR  18361.58570883  .00015972  00000-0  19002-3 0  9997
2 43468  51.6385 128.2196 0000507 160.0520 200.0493 15.61297752135844
CUBERRT                 
1 43546U 98067NU  18361.58113198  .00004786  00000-0  67610-4 0  9996
2 43546  51.6382 131.9292 0005851 198.9784 161.0991 15.58633917 25946
TEMPEST-D               
1 43547U 98067NV  18361.74857978  .00007449  00000-0  11136-3 0  9996
2 43547  51.6384 132.2934 0005911 191.2968 168.7891 15.56117316 25630
RAINCUBE                
1 43548U 98067NW  18361.56651700  .00008994  00000-0  12683-3 0  9996
2 43548  51.6387 132.5796 0005863 203.0490 157.0240 15.57414023 26064
HALOSAT                 
1 43549U 98067NX  18361.63085910  .00007867  00000-0  11180-3 0  9998
2 43549  51.6388 132.2613 0005757 205.4951 154.5758 15.57414621 25633
ENDUROSAT ONE           
1 43551U 98067NZ  18361.77372305  .00011502  00000-0  15590-3 0  9993
2 43551  51.6386 130.9625 0006166 214.2204 145.8392 15.58160913 26075
EQUISAT                 
1 43552U 98067PA  18361.60158278  .00009327  00000-0  12981-3 0  9990
2 43552  51.6390 132.0651 0006428 212.8602 147.1992 15.57716801 26006
AEROCUBE 12A            
1 43556U 18046C   18361.71037557  .00000396  00000-0  27019-4 0  9997
2 43556  51.6418 166.0630 0008715 167.1199 193.0005 15.28145330 25105
AEROCUBE 12B            
1 43557U 18046D   18361.71328525  .00000321  00000-0  24371-4 0  9992
2 43557  51.6419 166.0810 0008708 167.3138 192.8063 15.28086174 25059
UITMSAT-1               
1 43589U 98067PD  18361.59144395  .00010237  00000-0  14342-3 0  9998
2 43589  51.6381 132.7420 0005784 221.2455 138.8101 15.57412736 21735
MAYA-1                  
1 43590U 98067PE  18361.46068824  .00010206  00000-0  14289-3 0  9994
2 43590  51.6383 133.3695 0005867 221.8130 138.2415 15.57435624 21641
BHUTAN-1                
1 43591U 98067PF  18361.77791275  .00010975  00000-0  15283-3 0  9990
2 43591  51.6387 131.7387 0005935 224.4056 135.6461 15.57487884 21690
SIRIUSSAT-1             
1 43595U 98067PG  18361.75578455  .00009374  00000-0  13411-3 0  9997
2 43595  51.6384 132.3356 0003838 173.8135 186.2905 15.56966978 20867
SIRIUSSAT-2             
1 43596U 98067PH  18361.57588671  .00009781  00000-0  14046-3 0  9996
2 43596  51.6391 133.3973 0004461 176.8426 183.2595 15.56806979 20834
TANUSHA-3               
1 43597U 98067PJ  18361.74683067  .00010590  00000-0  14853-3 0  9997
2 43597  51.6369 132.2619 0003881 190.6374 169.4537 15.57345286 20861
SURFSAT                 
1 43614U 18070B   18361.81677336  .00002224  00000-0  62131-4 0  9991
2 43614  93.0378 292.1985 0013819 249.4210 110.5560 15.36716869 15859
CP-7 (DAVE)             
1 43615U 18070C   18361.81679846  .00001994  00000-0  55751-4 0  9993
2 43615  93.0379 292.1993 0013915 249.4925 110.4835 15.36697590 15853
ELFIN-B                 
1 43616U 18070D   18361.80783523  .00003010  00000-0  83345-4 0  9992
2 43616  93.0346 292.1545 0014858 253.9367 106.0250 15.36944826 15857
ELFIN-A                 
1 43617U 18070E   18361.54520686  .00003053  00000-0  84478-4 0  9998
2 43617  93.0398 292.1263 0013933 250.5057 109.4692 15.36982282 15815
DEBRISSAT-1             
1 43621U 98067PM  18361.83752904  .00096986  00000-0  81922-3 0  9996
2 43621  51.6450 127.6933 0005158 229.3535 130.7013 15.68963465 15923
CUBEBEL-1 (BSUSAT-1)    
1 43666U 18083E   18361.77912451  .00000865  00000-0  46832-4 0  9996
2 43666  97.5338  22.3313 0016928  70.4735  17.5487 15.17208504  9068
DEBRISSAT-2             
1 43680U 98067PR  18361.74337250  .00012634  00000-0  17829-3 0  9997
2 43680  51.6415 132.2432 0003807 199.3934 160.6911 15.56973920 29606
CICERO 10               
1 43690U 18088A   18361.68921663  .00000942  00000-0  42562-4 0  9995
2 43690  85.0389  72.3709 0017467 118.4702 241.8300 15.19320087  7071
IRVINE01                
1 43693U 18088D   18361.71693508  .00001762  00000-0  78118-4 0  9993
2 43693  85.0365  72.2774 0021122 107.3035 253.0519 15.20616950  7074
PROXIMA I               
1 43694U 18088E   18361.56980478  .00000773  00000-0  32718-4 0  9999
2 43694  85.0333  72.3263 0021974  99.7811 260.5913 15.21069236  7065
PROXIMA II              
1 43696U 18088G   18361.70117633  .00000769  00000-0  32569-4 0  9991
2 43696  85.0333  72.2398 0022014  99.3119 261.0613 15.21075323  7076
FACSAT-1                
1 43721U 18096C   18361.75632818  .00001139  00000-0  47369-4 0  9997
2 43721  97.4819  66.7627 0017461 215.0722 144.9367 15.25774132  4363
CENTAURI-2              
1 43722U 18096D   18361.75483093  .00001431  00000-0  58583-4 0  9992
2 43722  97.4820  66.7651 0017576 216.0893 143.9160 15.25864846  4351
